番号,latitude,longitude,施設名,種別,確保水量（立方メートル）,所在地,詳細画像,情報更新日,備考
1,35.6907358,139.740849,区立東郷元帥記念公園,震災対策用応急給水槽（1500立方メートル槽）,1500,東京都千代田区三番町18,http://www.waterworks.metro.tokyo.jp/kurashi/shinsai/img/1.jpg,平成27年7月9日,［住所］三番町18
2,35.6749363,139.756512,都立日比谷公園,震災対策用応急給水槽（1500立方メートル槽）,1500,東京都千代田区日比谷公園1,http://www.waterworks.metro.tokyo.jp/kurashi/shinsai/img/2.jpg,平成27年7月9日,［住所］日比谷公園1
3,35.6945844,139.781041,都立一橋高等学校,小規模応急給水槽（100立方メートル槽）,100,東京都千代田区東神田1-12-13,http://www.waterworks.metro.tokyo.jp/kurashi/shinsai/img/3.jpg,平成27年7月9日,［住所］東神田1-12-13
4,35.658526,139.784114,晴海給水所,浄水場・給水所,1300,東京都中央区晴海1-6-3,http://www.waterworks.metro.tokyo.jp/kurashi/shinsai/img/4.jpg,平成27年7月9日,［住所］晴海1-6-3
5,35.6666574,139.775847,区立あかつき公園,震災対策用応急給水槽（1500立方メートル槽）,1500,東京都中央区築地7-19-1,http://www.waterworks.metro.tokyo.jp/kurashi/shinsai/img/5.jpg,平成27年7月9日,［住所］築地7-19-1
6,35.686354,139.779313,区立堀留児童公園,小規模応急給水槽（100立方メートル槽）,100,東京都中央区日本橋堀留町1-1-16,http://www.waterworks.metro.tokyo.jp/kurashi/shinsai/img/6.jpg,平成27年7月9日,［住所］日本橋堀留町1-1-16
7,35.6612205,139.745108,芝給水所,浄水場・給水所,26600,東京都港区芝公園3-6-7,http://www.waterworks.metro.tokyo.jp/kurashi/shinsai/img/7.jpg,平成27年7月9日,［住所］芝公園3-6-7
8,35.6634052,139.725107,都立青山公園,震災対策用応急給水槽（1500立方メートル槽）,1500,東京都港区六本木7-23,http://www.waterworks.metro.tokyo.jp/kurashi/shinsai/img/8.jpg,平成27年7月9日,［住所］六本木7-23
9,35.6345433,139.737854,シティハイツ桂坂 (港区防災活動拠点),小規模応急給水槽（100立方メートル槽）,100,東京都港区高輪2-13-8,http://www.waterworks.metro.tokyo.jp/kurashi/shinsai/img/9.jpg,平成27年7月9日,［住所］高輪2-13-8
10,35.709457,139.822442,区立文花公園,震災対策用応急給水槽（1500立方メートル槽）,1500,東京都墨田区文花1-27-5,http://www.waterworks.metro.tokyo.jp/kurashi/shinsai/img/10.jpg,平成27年7月9日,［住所］文花1-27-5
11,35.693752,139.796117,区立両国公園,小規模応急給水槽（100立方メートル槽）,100,東京都墨田区両国4-25-3,http://www.waterworks.metro.tokyo.jp/kurashi/shinsai/img/11.jpg,平成27年7月9日,［住所］両国4-25-3
12,35.7001343,139.81999,亀戸給水所,浄水場・給水所,20000,東京都江東区亀戸2-6-50,http://www.waterworks.metro.tokyo.jp/kurashi/shinsai/img/12.jpg,平成27年7月9日,［住所］亀戸2-6-50
13,35.67504,139.810955,豊住給水所,浄水場・給水所,13300,東京都江東区東陽6-1-8,http://www.waterworks.metro.tokyo.jp/kurashi/shinsai/img/13.jpg,平成27年7月9日,［住所］東陽6-1-8
14,35.6654223,139.841327,江東給水所,浄水場・給水所,22000,東京都江東区新砂3-6-17,http://www.waterworks.metro.tokyo.jp/kurashi/shinsai/img/14.jpg,平成27年7月9日,［住所］新砂3-6-17
15,35.6308274,139.78544,有明給水所,浄水場・給水所,6600,東京都江東区有明3-1-8,http://www.waterworks.metro.tokyo.jp/kurashi/shinsai/img/15.jpg,平成27年7月9日,［住所］有明3-1-8
16,35.6696072,139.833372,区立南砂三丁目公園,震災対策用応急給水槽（1500立方メートル槽）,1500,東京都江東区南砂3-14-21,http://www.waterworks.metro.tokyo.jp/kurashi/shinsai/img/16.jpg,平成27年7月9日,［住所］南砂3-14-21
17,35.648485,139.815759,都立辰巳の森海浜公園,震災対策用応急給水槽（1500立方メートル槽）,1500,東京都江東区辰巳2-1,http://www.waterworks.metro.tokyo.jp/kurashi/shinsai/img/17.jpg,平成27年7月9日,［住所］辰巳2-1
18,35.691352,139.898084,西瑞江給水所,浄水場・給水所,0,東京都江戸川区東瑞江1-26-2,http://www.waterworks.metro.tokyo.jp/kurashi/shinsai/img/18.jpg,平成27年7月9日,西瑞江給水所では平成23年8月1日（月）から平成28年3月31日（木）までは工事のため応急給水が出来ない状況になります。<br />　その間は、葛西給水所等の近隣の給水拠点で応急給水を実施しますので、ご不便をお掛けしますがご理解とご協力をお願いします。
19,35.6735964,139.859175,葛西給水所,浄水場・給水所,13300,東京都江戸川区北葛西3-9,http://www.waterworks.metro.tokyo.jp/kurashi/shinsai/img/19.jpg,平成27年7月9日,［住所］北葛西3-9
20,35.7146512,139.897982,都立篠崎公園,震災対策用応急給水槽（1500立方メートル槽）,1500,東京都江戸川区上篠崎1-25,http://www.waterworks.metro.tokyo.jp/kurashi/shinsai/img/20.jpg,平成27年7月9日,［住所］上篠崎1-25
21,35.6703835,139.864392,区立宇喜田中央公園,震災対策用応急給水槽（1500立方メートル槽）,1500,東京都江戸川区北葛西4-15,http://www.waterworks.metro.tokyo.jp/kurashi/shinsai/img/21.jpg,平成27年7月9日,［住所］北葛西4-15
22,35.7460218,139.886598,区立小岩公園,震災対策用応急給水槽（1500立方メートル槽）,1500,東京都江戸川区北小岩6-43,http://www.waterworks.metro.tokyo.jp/kurashi/shinsai/img/22.jpg,平成27年7月9日,［住所］北小岩6-43
23,35.693831,139.852674,都立大島小松川公園,震災対策用応急給水槽（1500立方メートル槽）,1500,東京都江戸川区小松川1-7,http://www.waterworks.metro.tokyo.jp/kurashi/shinsai/img/23.jpg,平成27年7月9日,［住所］小松川1-7
24,35.653675,139.870792,都立葛西南高等学校,小規模応急給水槽（100立方メートル槽）,100,東京都江戸川区南葛西1-11-1,http://www.waterworks.metro.tokyo.jp/kurashi/shinsai/img/24.jpg,平成27年7月9日,［住所］南葛西1-11-1
25,35.735711,139.807672,南千住給水所,浄水場・給水所,33300,東京都荒川区南千住8-2-6,http://www.waterworks.metro.tokyo.jp/kurashi/shinsai/img/25.jpg,平成27年7月9日,［住所］南千住8-2-6
26,35.7267831,139.776998,区立日暮里南公園,震災対策用応急給水槽（1500立方メートル槽）,1500,東京都荒川区東日暮里5-19-1,http://www.waterworks.metro.tokyo.jp/kurashi/shinsai/img/26.jpg,平成27年7月9日,［住所］東日暮里5-19-1
27,35.7721511,139.807309,小右衛門給水所,浄水場・給水所,16600,東京都足立区中央本町3-8-1,http://www.waterworks.metro.tokyo.jp/kurashi/shinsai/img/27.jpg,平成27年7月9日,［住所］中央本町3-8-1
28,35.7921681,139.813669,区総合スポーツセンター,震災対策用応急給水槽（1500立方メートル槽）,1500,東京都足立区東保木間2-27-1,http://www.waterworks.metro.tokyo.jp/kurashi/shinsai/img/28.jpg,平成27年7月9日,［住所］東保木間2-27-1
29,35.7451241,139.795587,区立千住スポーツ公園,震災対策用応急給水槽（1500立方メートル槽）,1500,東京都足立区千住緑町2-1-1,http://www.waterworks.metro.tokyo.jp/kurashi/shinsai/img/29.jpg,平成27年7月9日,［住所］千住緑町2-1-1
30,35.7899898,139.779992,区立諏訪木東公園,震災対策用応急給水槽（1500立方メートル槽）,1500,東京都足立区西新井3-25,http://www.waterworks.metro.tokyo.jp/kurashi/shinsai/img/30.jpg,平成27年7月9日,［住所］西新井3-25
31,35.7717303,139.8482,区立大谷田南公園,震災対策用応急給水槽（1500立方メートル槽）,1500,東京都足立区中川4-42-1,http://www.waterworks.metro.tokyo.jp/kurashi/shinsai/img/31.jpg,平成27年7月9日,［住所］中川4-42-1
32,35.7824043,139.754116,区立北鹿浜公園,震災対策用応急給水槽（1500立方メートル槽）,1500,東京都足立区鹿浜3-26,http://www.waterworks.metro.tokyo.jp/kurashi/shinsai/img/32.jpg,平成27年7月9日,［住所］鹿浜3-26
33,35.797126,139.768392,都立舎人公園,小規模応急給水槽（100立方メートル槽）,100,東京都足立区舎人公園1-1,http://www.waterworks.metro.tokyo.jp/kurashi/shinsai/img/33.jpg,平成27年7月9日,［住所］舎人公園1-1
34,35.7625165,139.878351,金町浄水場,浄水場・給水所,48700,東京都葛飾区金町浄水場1-1,http://www.waterworks.metro.tokyo.jp/kurashi/shinsai/img/34.jpg,平成27年7月9日,［住所］金町浄水場1-1
35,35.7933213,139.862382,水元給水所（都立水元公園内自由広場）,浄水場・給水所,33300,東京都葛飾区水元公園4,http://www.waterworks.metro.tokyo.jp/kurashi/shinsai/img/35.jpg,平成27年7月9日,※大規模な断水が発生した場合は、図の給水場所で水道水をお配りします。［住所］水元公園4（※）
36,35.7549733,139.839038,区立上干葉公園,震災対策用応急給水槽（1500立方メートル槽）,1500,東京都葛飾区東堀切3-25-1,http://www.waterworks.metro.tokyo.jp/kurashi/shinsai/img/36.jpg,平成27年7月9日,［住所］東堀切3-25-1
37,35.7161193,139.853947,区立新小岩公園,震災対策用応急給水槽（1500立方メートル槽）,1500,東京都葛飾区西新小岩1-1-3,http://www.waterworks.metro.tokyo.jp/kurashi/shinsai/img/37.jpg,平成27年7月9日,［住所］西新小岩1-1-3
38,35.7307623,139.843497,区立渋江東公園,小規模応急給水槽（100立方メートル槽）,100,東京都葛飾区東四つ木2-15,http://www.waterworks.metro.tokyo.jp/kurashi/shinsai/img/38.jpg,平成27年7月9日,［住所］東四つ木2-15
39,35.6881427,139.690673,淀橋給水所,浄水場・給水所,24000,東京都新宿区西新宿2-10-1,http://www.waterworks.metro.tokyo.jp/kurashi/shinsai/img/39.jpg,平成27年7月9日,［住所］西新宿2-10-1
40,35.706243,139.724088,区立鶴巻南公園,震災対策用応急給水槽（1500立方メートル槽）,1500,東京都新宿区早稲田鶴巻町507,http://www.waterworks.metro.tokyo.jp/kurashi/shinsai/img/40.jpg,平成27年7月9日,［住所］早稲田鶴巻町507
41,35.705972,139.695727,区立百人町ふれあい公園,震災対策用応急給水槽（1500立方メートル槽）,1500,東京都新宿区百人町3-28,http://www.waterworks.metro.tokyo.jp/kurashi/shinsai/img/41.jpg,平成27年7月9日,［住所］百人町3-28
42,35.686516,139.666897,区立弥生公園,小規模応急給水槽（100立方メートル槽）,100,東京都中野区弥生町5-4,http://www.waterworks.metro.tokyo.jp/kurashi/shinsai/img/42.jpg,平成27年7月9日,［住所］弥生町5-4
43,35.7299689,139.665715,区立江古田の森公園,小規模応急給水槽（100立方メートル槽）,100,東京都中野区江古田3-14,http://www.waterworks.metro.tokyo.jp/kurashi/shinsai/img/43.jpg,平成27年7月9日,［住所］江古田3-14
44,35.724666,139.674613,区立みずのとう公園,小規模応急給水槽（100立方メートル槽）,100,東京都中野区江古田1-3,http://www.waterworks.metro.tokyo.jp/kurashi/shinsai/img/44.jpg,平成27年7月9日,［住所］江古田1-3
45,35.715126,139.588683,杉並浄水所,浄水場・給水所,800,東京都杉並区善福寺3-28-5,http://www.waterworks.metro.tokyo.jp/kurashi/shinsai/img/45.jpg,平成27年7月9日,［住所］善福寺3-28-5
46,35.671071,139.652962,和泉水圧調整所,浄水場・給水所,16600,東京都杉並区和泉2-5-23,http://www.waterworks.metro.tokyo.jp/kurashi/shinsai/img/46.jpg,平成27年7月9日,［住所］和泉2-5-23
47,35.7216352,139.601235,上井草給水所,浄水場・給水所,60000,東京都杉並区上井草3-22-12,http://www.waterworks.metro.tokyo.jp/kurashi/shinsai/img/47.jpg,平成27年7月9日,［住所］上井草3-22-12
48,35.6842424,139.641827,都立和田堀公園,震災対策用応急給水槽（1500立方メートル槽）,1500,東京都杉並区大宮2-26,http://www.waterworks.metro.tokyo.jp/kurashi/shinsai/img/48.jpg,平成27年7月9日,［住所］大宮2-26
49,35.697308,139.656111,区立蚕糸の森公園,震災対策用応急給水槽（1500立方メートル槽）,1500,東京都杉並区和田3-55,http://www.waterworks.metro.tokyo.jp/kurashi/shinsai/img/49.jpg,平成27年7月9日,［住所］和田3-55
50,35.681043,139.608935,区立昭栄公園,震災対策用応急給水槽（1500立方メートル槽）,1500,東京都杉並区高井戸西1-12,http://www.waterworks.metro.tokyo.jp/kurashi/shinsai/img/50.jpg,平成27年7月9日,［住所］高井戸西1-12
51,35.7269204,139.611062,区立井草森公園,震災対策用応急給水槽（1500立方メートル槽）,1500,東京都杉並区井草4-12-1,http://www.waterworks.metro.tokyo.jp/kurashi/shinsai/img/51.jpg,平成27年7月9日,［住所］井草4-12-1
52,35.709583,139.643056,区立馬橋公園,小規模応急給水槽（100立方メートル槽）,100,東京都杉並区高円寺北4-35-5,http://www.waterworks.metro.tokyo.jp/kurashi/shinsai/img/52.jpg,平成27年7月9日,［住所］高円寺北4-35-5
53,35.6111591,139.722403,区立戸越公園,震災対策用応急給水槽（1500立方メートル槽）,1500,東京都品川区豊町2-1-30,http://www.waterworks.metro.tokyo.jp/kurashi/shinsai/img/53.jpg,平成27年7月9日,［住所］豊町2-1-30
54,35.597344,139.749552,区立しおじ公園,震災対策用応急給水槽（1500立方メートル槽）,1500,東京都品川区八潮5-6,http://www.waterworks.metro.tokyo.jp/kurashi/shinsai/img/54.jpg,平成27年7月9日,［住所］八潮5-6
55,35.611851,139.74661,都立八潮高等学校,小規模応急給水槽（100立方メートル槽）,100,東京都品川区東品川3-27-22,http://www.waterworks.metro.tokyo.jp/kurashi/shinsai/img/55.jpg,平成27年7月9日,［住所］東品川3-27-22
56,35.5886364,139.70192,馬込給水所,浄水場・給水所,12080,東京都大田区西馬込2-15-6,http://www.waterworks.metro.tokyo.jp/kurashi/shinsai/img/56.jpg,平成27年7月9日,［住所］西馬込2-15-6
57,35.6004761,139.699734,上池台給水所,浄水場・給水所,11000,東京都大田区上池台1-48-25,http://www.waterworks.metro.tokyo.jp/kurashi/shinsai/img/57.jpg,平成27年7月9日,［住所］上池台1-48-25
58,35.5852378,139.75335,東海給水所,浄水場・給水所,13300,東京都大田区東海1-3-12,http://www.waterworks.metro.tokyo.jp/kurashi/shinsai/img/58-2.jpg,平成27年7月9日,［住所］東海1-3-12
59,35.5463837,139.705564,区立西六郷三丁目公園,震災対策用応急給水槽（1500立方メートル槽）,1500,東京都大田区西六郷3-16-16,http://www.waterworks.metro.tokyo.jp/kurashi/shinsai/img/58.jpg,平成27年7月9日,［住所］西六郷3-16-16
60,35.5496978,139.739022,区立萩中公園,震災対策用応急給水槽（1500立方メートル槽）,1500,東京都大田区萩中3-25-26,http://www.waterworks.metro.tokyo.jp/kurashi/shinsai/img/59.jpg,平成27年7月9日,［住所］萩中3-25-26
61,35.5773909,139.738368,区立都堀公園,震災対策用応急給水槽（1500立方メートル槽）,1500,東京都大田区大森東1-30,http://www.waterworks.metro.tokyo.jp/kurashi/shinsai/img/60.jpg,平成27年7月9日,［住所］大森東1-30
62,35.5692088,139.679066,区立下丸子公園,震災対策用応急給水槽（1500立方メートル槽）,1500,東京都大田区下丸子4-21,http://www.waterworks.metro.tokyo.jp/kurashi/shinsai/img/61.jpg,平成27年7月9日,［住所］下丸子4-21
63,35.5727504,139.711054,区立女塚なかよし公園,小規模応急給水槽（100立方メートル槽）,100,東京都大田区池上5-24,http://www.waterworks.metro.tokyo.jp/kurashi/shinsai/img/62.jpg,平成27年7月9日,［住所］池上5-24
64,35.620566,139.670911,八雲給水所,浄水場・給水所,16600,東京都目黒区八雲1-1,http://www.waterworks.metro.tokyo.jp/kurashi/shinsai/img/63.jpg,平成27年7月9日,［住所］八雲1-1
65,35.6248794,139.704154,都立林試の森公園,震災対策用応急給水槽（1500立方メートル槽）,1500,東京都目黒区下目黒5-37,http://www.waterworks.metro.tokyo.jp/kurashi/shinsai/img/64.jpg,平成27年7月9日,［住所］下目黒5-37
66,35.623056,139.593948,砧浄水場,浄水場・給水所,8300,東京都世田谷区喜多見2-9-1,http://www.waterworks.metro.tokyo.jp/kurashi/shinsai/img/65.jpg,平成27年7月9日,［住所］喜多見2-9-1
67,35.617936,139.610803,砧下浄水所,浄水場・給水所,700,東京都世田谷区鎌田2-4-1,http://www.waterworks.metro.tokyo.jp/kurashi/shinsai/img/66.jpg,平成27年7月9日,［住所］鎌田2-4-1
68,35.670036,139.657061,和田堀給水所,浄水場・給水所,20300,東京都世田谷区大原2-30-43,http://www.waterworks.metro.tokyo.jp/kurashi/shinsai/img/67.jpg,平成27年7月9日,［住所］大原2-30-43
69,35.599819,139.66272,玉川給水所,浄水場・給水所,20000,東京都世田谷区玉川田園調布1-19-1,http://www.waterworks.metro.tokyo.jp/kurashi/shinsai/img/68.jpg,平成27年7月9日,［住所］玉川田園調布1-19-1
70,35.642887,139.616369,大蔵給水所,浄水場・給水所,13300,東京都世田谷区砧2-8-1,http://www.waterworks.metro.tokyo.jp/kurashi/shinsai/img/69.jpg,平成27年7月9日,［住所］砧2-8-1
71,35.633124,139.650269,駒沢給水所,浄水場・給水所,3200,東京都世田谷区弦巻2-41-5,http://www.waterworks.metro.tokyo.jp/kurashi/shinsai/img/70.jpg,平成27年7月9日,［住所］弦巻2-41-5
72,35.6427401,139.678642,区立こどものひろば公園,震災対策用応急給水槽（1500立方メートル槽）,1500,東京都世田谷区下馬2-31-4,http://www.waterworks.metro.tokyo.jp/kurashi/shinsai/img/71.jpg,平成27年7月9日,［住所］下馬2-31-4
73,35.6580311,139.622471,区立葭根公園,震災対策用応急給水槽（1500立方メートル槽）,1500,東京都世田谷区船橋6-21,http://www.waterworks.metro.tokyo.jp/kurashi/shinsai/img/72.jpg,平成27年7月9日,［住所］船橋6-21
74,35.6534264,139.597388,都立祖師谷公園,震災対策用応急給水槽（1500立方メートル槽）,1500,東京都世田谷区上祖師谷4-2,http://www.waterworks.metro.tokyo.jp/kurashi/shinsai/img/73.jpg,平成27年7月9日,［住所］上祖師谷4-2
75,35.6116002,139.641169,区立中町二丁目公園,小規模応急給水槽（100立方メートル槽）,100,東京都世田谷区中町2-34-1,http://www.waterworks.metro.tokyo.jp/kurashi/shinsai/img/74.jpg,平成27年7月9日,［住所］中町2-34-1
76,35.6728012,139.692596,都立代々木公園,震災対策用応急給水槽（1500立方メートル槽）,1500,東京都渋谷区代々木神園町2-1,http://www.waterworks.metro.tokyo.jp/kurashi/shinsai/img/75.jpg,平成27年7月9日,［住所］代々木神園町2-1
77,35.650164,139.698585,都立第一商業高等学校,小規模応急給水槽（100立方メートル槽）,100,東京都渋谷区鉢山町8-1,http://www.waterworks.metro.tokyo.jp/kurashi/shinsai/img/76.jpg,平成27年7月9日,［住所］鉢山町8-1
78,35.6437963,139.713581,区立景丘公園,小規模応急給水槽（100立方メートル槽）,100,東京都渋谷区恵比寿4-19-21,http://www.waterworks.metro.tokyo.jp/kurashi/shinsai/img/77.jpg,平成27年7月9日,［住所］恵比寿4-19-21
79,35.7038488,139.760411,本郷給水所,浄水場・給水所,20000,東京都文京区本郷2-7-29,http://www.waterworks.metro.tokyo.jp/kurashi/shinsai/img/78.jpg,平成27年7月9日,［住所］本郷2-7-29
80,35.720204,139.736974,区立教育の森公園,震災対策用応急給水槽（1500立方メートル槽）,1500,東京都文京区大塚3-29,http://www.waterworks.metro.tokyo.jp/kurashi/shinsai/img/79.jpg,平成27年7月9日,［住所］大塚3-29
81,35.7168921,139.773099,都立上野恩賜公園,震災対策用応急給水槽（1500立方メートル槽）,1500,東京都台東区上野公園8-51,http://www.waterworks.metro.tokyo.jp/kurashi/shinsai/img/80.jpg,平成27年7月9日,［住所］上野公園8-51
82,35.730651,139.705442,区立西池袋公園,震災対策用応急給水槽（1500立方メートル槽）,1500,東京都豊島区西池袋3-20-1,http://www.waterworks.metro.tokyo.jp/kurashi/shinsai/img/81.jpg,平成27年7月9日,［住所］西池袋3-20-1
83,35.7358562,139.728987,都立文京高等学校,小規模応急給水槽（100立方メートル槽）,100,東京都豊島区西巣鴨1-1-5,http://www.waterworks.metro.tokyo.jp/kurashi/shinsai/img/82.jpg,平成27年7月9日,［住所］西巣鴨1-1-5
84,35.7785454,139.707429,区立桐ケ丘中央公園,震災対策用応急給水槽（1500立方メートル槽）,1500,東京都北区桐ケ丘1-8,http://www.waterworks.metro.tokyo.jp/kurashi/shinsai/img/83.jpg,平成27年7月9日,［住所］桐ケ丘1-8
85,35.745411,139.744488,区立滝野川公園,震災対策用応急給水槽（1500立方メートル槽）,1500,東京都北区西ケ原2-1,http://www.waterworks.metro.tokyo.jp/kurashi/shinsai/img/84.jpg,平成27年7月9日,［住所］西ケ原2-1
86,35.7747429,139.728258,区立北運動公園,震災対策用応急給水槽（1500立方メートル槽）,1500,東京都北区神谷2-47-6,http://www.waterworks.metro.tokyo.jp/kurashi/shinsai/img/85.jpg,平成27年7月9日,［住所］神谷2-47-6
87,35.7948321,139.641979,三園浄水場,浄水場・給水所,15600,東京都板橋区三園2-10-1,http://www.waterworks.metro.tokyo.jp/kurashi/shinsai/img/86.jpg,平成27年7月9日,［住所］三園2-10-1
88,35.755489,139.718612,板橋給水所,浄水場・給水所,26600,東京都板橋区加賀1-17-1,http://www.waterworks.metro.tokyo.jp/kurashi/shinsai/img/87.jpg,平成27年7月9日,［住所］加賀1-17-1
89,35.745615,139.690848,大谷口給水所,浄水場・給水所,11600,東京都板橋区大谷口一丁目4番,http://www.waterworks.metro.tokyo.jp/kurashi/shinsai/img/89-2.jpg,平成27年7月9日,［住所］大谷口1-4
90,35.7552748,139.676449,都立城北中央公園,震災対策用応急給水槽（1500立方メートル槽）,1500,東京都板橋区桜川1-1,http://www.waterworks.metro.tokyo.jp/kurashi/shinsai/img/88.jpg,平成27年7月9日,［住所］桜川1-1
91,35.783725,139.681667,区立城北公園,震災対策用応急給水槽（1500立方メートル槽）,1500,東京都板橋区坂下2-19-1,http://www.waterworks.metro.tokyo.jp/kurashi/shinsai/img/89.jpg,平成27年7月9日,［住所］坂下2-19-1
92,35.7439,139.689637,都立板橋高等学校,小規模応急給水槽（100立方メートル槽）,100,東京都板橋区大谷ロ1-54-1,http://www.waterworks.metro.tokyo.jp/kurashi/shinsai/img/90.jpg,平成27年7月9日,［住所］大谷ロ1-54-1
93,35.785228,139.6553,都立赤塚公園,小規模応急給水槽（100立方メートル槽）,100,東京都板橋区高島平3-1,http://www.waterworks.metro.tokyo.jp/kurashi/shinsai/img/91.jpg,平成27年7月9日,［住所］高島平3-1
94,35.776156,139.667838,区立西徳第二公園,小規模応急給水槽（100立方メートル槽）,100,東京都板橋区西台3-42-1,http://www.waterworks.metro.tokyo.jp/kurashi/shinsai/img/92.jpg,平成27年7月9日,［住所］西台3-42-1
95,35.7633861,139.631914,練馬給水所,浄水場・給水所,45000,東京都練馬区光が丘2-4-1,http://www.waterworks.metro.tokyo.jp/kurashi/shinsai/img/93.jpg,平成27年7月9日,［住所］光が丘2-4-1
96,35.7719057,139.58279,区立大泉公園,震災対策用応急給水槽（1500立方メートル槽）,1500,東京都練馬区大泉学園町6-25,http://www.waterworks.metro.tokyo.jp/kurashi/shinsai/img/94.jpg,平成27年7月9日,［住所］大泉学園町6-25
97,35.729617,139.649375,区立学田公園,震災対策用応急給水槽（1500立方メートル槽）,1500,東京都練馬区豊玉南3-32,http://www.waterworks.metro.tokyo.jp/kurashi/shinsai/img/95.jpg,平成27年7月9日,［住所］豊玉南3-32
98,35.7526187,139.656165,区立はやいち公園,小規模応急給水槽（100立方メートル槽）,100,東京都練馬区早宮1-47-11,http://www.waterworks.metro.tokyo.jp/kurashi/shinsai/img/96.jpg,平成27年7月9日,［住所］早宮1-47-11
99,35.7480591,139.598237,区立みんなの広場公園,小規模応急給水槽（100立方メートル槽）,100,東京都練馬区石神井町8-41,http://www.waterworks.metro.tokyo.jp/kurashi/shinsai/img/97.jpg,平成27年7月9日,［住所］石神井町8-41
100,35.6241461,139.349782,鑓水給水所,浄水場・給水所,1660,東京都八王子市鑓水401,http://www.waterworks.metro.tokyo.jp/kurashi/shinsai/img/100.jpg,平成27年7月9日,［住所］鑓水401
101,35.6879941,139.26847,西寺方給水所,浄水場・給水所,1660,東京都八王子市西寺方町1006-167,http://www.waterworks.metro.tokyo.jp/kurashi/shinsai/img/101.jpg,平成27年7月9日,［住所］西寺方町1006-167
102,35.6302942,139.278766,狭間給水所,浄水場・給水所,5000,東京都八王子市狭間町1994-478,http://www.waterworks.metro.tokyo.jp/kurashi/shinsai/img/102.jpg,平成27年7月9日,［住所］狭間町1994-478
103,35.6993634,139.302661,犬目第二給水所,浄水場・給水所,1760,東京都八王子市犬目町710,http://www.waterworks.metro.tokyo.jp/kurashi/shinsai/img/103.jpg,平成27年7月9日,［住所］犬目町710
104,35.7156311,139.31892,高月給水所,浄水場・給水所,5000,東京都八王子市高月町2240,http://www.waterworks.metro.tokyo.jp/kurashi/shinsai/img/104.jpg,平成27年7月9日,［住所］高月町2240
105,35.651316,139.315081,散田給水所,浄水場・給水所,6660,東京都八王子市散田町2-6-1,http://www.waterworks.metro.tokyo.jp/kurashi/shinsai/img/105.jpg,平成27年7月9日,［住所］散田町2-6-1
106,35.6405654,139.299999,東浅川給水所,浄水場・給水所,4330,東京都八王子市東浅川町674,http://www.waterworks.metro.tokyo.jp/kurashi/shinsai/img/106.jpg,平成27年7月9日,［住所］東浅川町674
107,35.616192,139.296856,寺田配水所,浄水場・給水所,330,東京都八王子市寺田町1359-4,http://www.waterworks.metro.tokyo.jp/kurashi/shinsai/img/107.jpg,平成27年7月9日,［住所］寺田町1359-4
108,35.646691,139.266414,元八王子配水所,浄水場・給水所,150,東京都八王子市元八王子町3-2750-487,http://www.waterworks.metro.tokyo.jp/kurashi/shinsai/img/108.jpg,平成27年7月9日,［住所］元八王子町3-2750-487
109,35.6538594,139.354989,北野給水所,浄水場・給水所,5280,東京都八王子市北野町595-3,http://www.waterworks.metro.tokyo.jp/kurashi/shinsai/img/109.jpg,平成27年7月9日,［住所］北野町595-3
110,35.6364467,139.374855,南陽台配水所,浄水場・給水所,330,東京都八王子市南陽台3-5-1,http://www.waterworks.metro.tokyo.jp/kurashi/shinsai/img/110.jpg,平成27年7月9日,［住所］南陽台3-5-1
111,35.6772291,139.307184,楢原給水所,浄水場・給水所,13330,東京都八王子市楢原町1294-3,http://www.waterworks.metro.tokyo.jp/kurashi/shinsai/img/111.jpg,平成27年7月9日,［住所］楢原町1294-3
112,35.6746641,139.336637,暁町配水所,浄水場・給水所,830,東京都八王子市暁町3-3-1,http://www.waterworks.metro.tokyo.jp/kurashi/shinsai/img/112.jpg,平成27年7月9日,［住所］暁町3-3-1
113,35.6864664,139.352866,久保山配水所,浄水場・給水所,730,東京都八王子市久保山町2-15-1,http://www.waterworks.metro.tokyo.jp/kurashi/shinsai/img/113.jpg,平成27年7月9日,［住所］久保山町2-15-1
114,35.616612,139.317224,大船給水所,浄水場・給水所,7330,東京都八王子市七国3-56-1,http://www.waterworks.metro.tokyo.jp/kurashi/shinsai/img/114.jpg,平成27年7月9日,［住所］七国3-56-1
115,35.606811,139.361154,鑓水小山給水所,浄水場・給水所,23330,東京都八王子市鑓水2-92,http://www.waterworks.metro.tokyo.jp/kurashi/shinsai/img/115.jpg,平成27年7月9日,［住所］鑓水2-92
116,35.603178,139.38008,南大沢給水所,浄水場・給水所,4950,東京都八王子市南大沢4-1942,http://www.waterworks.metro.tokyo.jp/kurashi/shinsai/img/116.jpg,平成27年7月9日,［住所］南大沢4-1942
117,35.649319,139.290022,都立陵南公園,震災対策用応急給水槽（1500立方メートル槽）,1500,東京都八王子市長房町1572,http://www.waterworks.metro.tokyo.jp/kurashi/shinsai/img/117.jpg,平成27年7月9日,［住所］長房町1572
118,35.6968355,139.405944,柴崎浄水所,浄水場・給水所,1500,東京都立川市柴崎町1-1-41,http://www.waterworks.metro.tokyo.jp/kurashi/shinsai/img/118.jpg,平成27年7月9日,［住所］柴崎町1-1-41
119,35.7268843,139.395941,砂川中部浄水所,浄水場・給水所,0,東京都立川市砂川町3-11-7,http://www.waterworks.metro.tokyo.jp/kurashi/shinsai/img/119.jpg,平成27年7月9日,砂川中部浄水所及び西砂第一浄水所は、 平成14年8月14日から運用を停止しています。［住所］砂川町3-11-7
120,35.7180059,139.424525,立川栄町浄水所,浄水場・給水所,330,東京都立川市栄町5-38-5,http://www.waterworks.metro.tokyo.jp/kurashi/shinsai/img/120.jpg,平成27年7月9日,［住所］栄町5-38-5
121,35.7306138,139.360383,西砂第一浄水所,浄水場・給水所,0,東京都立川市西砂町2-53-14,http://www.waterworks.metro.tokyo.jp/kurashi/shinsai/img/121.jpg,平成27年7月9日,砂川中部浄水所及び西砂第一浄水所は、 平成14年8月14日から運用を停止しています。［住所］西砂町2-53-14
122,35.7299825,139.407448,立川砂川浄水所,浄水場・給水所,5100,東京都立川市砂川町6-41-1,http://www.waterworks.metro.tokyo.jp/kurashi/shinsai/img/122.jpg,平成27年7月9日,［住所］砂川町6-41-1
123,35.6868321,139.55076,上連雀浄水場（西配水場）,浄水場・給水所,5430,東京都三鷹市上連雀9-41-4,http://www.waterworks.metro.tokyo.jp/kurashi/shinsai/img/123.jpg,平成27年7月9日,［住所］上連雀9-41-4
124,35.6796028,139.577258,三鷹新川浄水場（東配水場）,浄水場・給水所,3330,東京都三鷹市新川2-1-15,http://www.waterworks.metro.tokyo.jp/kurashi/shinsai/img/124.jpg,平成27年7月9日,［住所］新川2-1-15
125,35.7843741,139.234717,日向和田浄水所,浄水場・給水所,880,東京都青梅市日向和田2-370,http://www.waterworks.metro.tokyo.jp/kurashi/shinsai/img/125.jpg,平成27年7月9日,［住所］日向和田2-370
126,35.7846878,139.277824,千ケ瀬第二浄水所,浄水場・給水所,200,東京都青梅市千ケ瀬町1-69-1,http://www.waterworks.metro.tokyo.jp/kurashi/shinsai/img/126.jpg,平成27年7月9日,［住所］千ケ瀬町1-69-1
127,35.7834729,139.151242,御岳山第一配水所,浄水場・給水所,70,東京都青梅市御岳山170-3,http://www.waterworks.metro.tokyo.jp/kurashi/shinsai/img/127.jpg,平成27年7月9日,［住所］御岳山170-3
128,35.8187204,139.241891,成木配水所,浄水場・給水所,30,東京都青梅市成木8-690-3,http://www.waterworks.metro.tokyo.jp/kurashi/shinsai/img/128.jpg,平成27年7月9日,［住所］成木8-690-3
129,35.7884612,139.308874,新町給水所,浄水場・給水所,2330,東京都青梅市新町5-24-1,http://www.waterworks.metro.tokyo.jp/kurashi/shinsai/img/129.jpg,平成27年7月9日,［住所］新町5-24-1
130,35.8152563,139.2066375,二俣尾配水所,浄水場・給水所,70,東京都青梅市二俣尾5-107-2,http://www.waterworks.metro.tokyo.jp/kurashi/shinsai/img/130.jpg,平成27年7月9日,［住所］二俣尾5-107-2
131,35.796712,139.272305,城山配水所,浄水場・給水所,1440,東京都青梅市東青梅6-95-1,http://www.waterworks.metro.tokyo.jp/kurashi/shinsai/img/131.jpg,平成27年7月9日,［住所］東青梅6-95-1
132,35.6889931,139.460042,府中武蔵台浄水所,浄水場・給水所,3730,東京都府中市武蔵台2-7,http://www.waterworks.metro.tokyo.jp/kurashi/shinsai/img/132.jpg,平成27年7月9日,［住所］武蔵台2-7
133,35.6760322,139.499748,若松浄水所,浄水場・給水所,1760,東京都府中市若松町4-10,http://www.waterworks.metro.tokyo.jp/kurashi/shinsai/img/133.jpg,平成27年7月9日,［住所］若松町4-10
134,35.679613,139.483705,幸町浄水所,浄水場・給水所,1140,東京都府中市幸町2-24,http://www.waterworks.metro.tokyo.jp/kurashi/shinsai/img/134.jpg,平成27年7月9日,［住所］幸町2-24
135,35.6585721,139.470907,府中南町浄水所,浄水場・給水所,1660,東京都府中市南町1-50,http://www.waterworks.metro.tokyo.jp/kurashi/shinsai/img/135.jpg,平成27年7月9日,［住所］南町1-50
136,35.688622,139.51876,都立武蔵野公園,震災対策用応急給水槽（1500立方メートル槽）,1500,東京都府中市多磨町3-2,http://www.waterworks.metro.tokyo.jp/kurashi/shinsai/img/136.jpg,平成27年7月9日,［住所］多磨町3-2
137,35.661306,139.531746,上石原浄水場,浄水場・給水所,1120,東京都調布市上石原1-34-7,http://www.waterworks.metro.tokyo.jp/kurashi/shinsai/img/137.jpg,平成27年7月9日,［住所］上石原1-34-7
138,35.665028,139.585263,仙川浄水場,浄水場・給水所,320,東京都調布市仙川町3-6-27,http://www.waterworks.metro.tokyo.jp/kurashi/shinsai/img/138.jpg,平成27年7月9日,［住所］仙川町3-6-27
139,35.6693259,139.555504,深大寺浄水所,浄水場・給水所,9900,東京都調布市深大寺南町5-56-1,http://www.waterworks.metro.tokyo.jp/kurashi/shinsai/img/139.jpg,平成27年7月9日,［住所］深大寺南町5-56-1
140,35.6055194,139.449716,小野路給水所,浄水場・給水所,6330,東京都町田市小野路町2637-1,http://www.waterworks.metro.tokyo.jp/kurashi/shinsai/img/140.jpg,平成27年7月9日,［住所］小野路町2637-1
141,35.54707,139.450439,原町田浄水所,浄水場・給水所,520,東京都町田市原町田5-13-3,http://www.waterworks.metro.tokyo.jp/kurashi/shinsai/img/141.jpg,平成27年7月9日,［住所］原町田5-13-3
142,35.556835,139.434658,滝の沢浄水所,浄水場・給水所,1880,東京都町田市旭町2-7-7,http://www.waterworks.metro.tokyo.jp/kurashi/shinsai/img/142.jpg,平成27年7月9日,［住所］旭町2-7-7
143,35.5768701,139.448481,野津田浄水所,浄水場・給水所,1000,東京都町田市野津田町3398,http://www.waterworks.metro.tokyo.jp/kurashi/shinsai/img/143.jpg,平成27年7月9日,［住所］野津田町3398
144,35.5211759,139.482009,市立つくし野セントラルパーク,震災対策用応急給水槽（1500立方メートル槽）,1500,東京都町田市つくし野3-19,http://www.waterworks.metro.tokyo.jp/kurashi/shinsai/img/144.jpg,平成27年7月9日,［住所］つくし野3-19
145,35.5909809,139.47186,市立鶴川中央公園,小規模応急給水槽（100立方メートル槽）,100,東京都町田市鶴川6-6,http://www.waterworks.metro.tokyo.jp/kurashi/shinsai/img/145.jpg,平成27年7月9日,［住所］鶴川6-6
146,35.5434914,139.472661,成瀬コミュニティセンター,小規模応急給水槽（100立方メートル槽）,100,東京都町田市成瀬2144,http://www.waterworks.metro.tokyo.jp/kurashi/shinsai/img/146.jpg,平成27年7月9日,［住所］成瀬2144
147,35.5728224,139.422442,市立忠生公園,小規模応急給水槽（100立方メートル槽）,100,東京都町田市忠生1-3,http://www.waterworks.metro.tokyo.jp/kurashi/shinsai/img/147.jpg,平成27年7月9日,［住所］忠生1-3
148,35.5743198,139.4884894,市立三輪中央公園,小規模応急給水槽（100立方メートル槽）,100,東京都町田市三輪緑山3-21,http://www.waterworks.metro.tokyo.jp/kurashi/shinsai/img/204.jpg,平成27年7月9日,［住所］三輪緑山3-21
149,35.7046375,139.526531,梶野浄水所,浄水場・給水所,1300,東京都小金井市梶野町5-10-33,http://www.waterworks.metro.tokyo.jp/kurashi/shinsai/img/148.jpg,平成27年7月9日,［住所］梶野町5-10-33
150,35.711611,139.491713,上水南浄水所,浄水場・給水所,11660,東京都小平市上水南町3-12-36,http://www.waterworks.metro.tokyo.jp/kurashi/shinsai/img/149.jpg,平成27年7月9日,［住所］小平市上水南町3-12-36
151,35.7256378,139.453172,小川浄水所,浄水場・給水所,6580,東京都小平市小川町1-847,http://www.waterworks.metro.tokyo.jp/kurashi/shinsai/img/150.jpg,平成27年7月9日,［住所］小川町1-847
152,35.722887,139.470526,津田二号水源,浄水場・給水所,1200,東京都小平市津田町3-39-3,http://www.waterworks.metro.tokyo.jp/kurashi/shinsai/img/151.jpg,平成27年7月9日,［住所］津田町3-39-3
153,35.6772404,139.389826,大坂上浄水所,浄水場・給水所,650,東京都日野市大坂上1-17-11,http://www.waterworks.metro.tokyo.jp/kurashi/shinsai/img/152.jpg,平成27年7月9日,［住所］大坂上1-17-11
154,35.6650353,139.382619,多摩平浄水所,浄水場・給水所,3660,東京都日野市多摩平2-7-2,http://www.waterworks.metro.tokyo.jp/kurashi/shinsai/img/153.jpg,平成27年7月9日,［住所］多摩平2-7-2
155,35.64064,139.395207,程久保給水所,浄水場・給水所,7000,東京都日野市程久保5-10-1,http://www.waterworks.metro.tokyo.jp/kurashi/shinsai/img/154.jpg,平成27年7月9日,［住所］程久保5-10-1
156,35.6579869,139.418189,三沢配水所,浄水場・給水所,1490,東京都日野市三沢905-2,http://www.waterworks.metro.tokyo.jp/kurashi/shinsai/img/155.jpg,平成27年7月9日,［住所］三沢905-2
157,35.662666,139.368353,日野旭が丘給水所,浄水場・給水所,1660,東京都日野市旭が丘2-42-2,http://www.waterworks.metro.tokyo.jp/kurashi/shinsai/img/156.jpg,平成27年7月9日,［住所］旭が丘2-42-2
158,35.747356,139.458482,八坂給水所,浄水場・給水所,20000,東京都東村山市富士見町5-4-46,http://www.waterworks.metro.tokyo.jp/kurashi/shinsai/img/157.jpg,平成27年7月9日,［住所］富士見町5-4-46
159,35.7532331,139.458674,東村山浄水場,浄水場・給水所,36000,東京都東村山市美住町2-20-236,http://www.waterworks.metro.tokyo.jp/kurashi/shinsai/img/158.jpg,平成27年7月9日,［住所］美住町2-20-236
160,35.7555303,139.461554,美住給水所,浄水場・給水所,0,東京都東村山市美住町2-13-4,http://www.waterworks.metro.tokyo.jp/kurashi/shinsai/img/159.jpg,平成27年7月9日,美住給水所は、工事のため平成25年5月10日から運用を停止します。［住所］美住町2-13-4
161,35.755546,139.488921,市立東村山運動公園,震災対策用応急給水槽（1500立方メートル槽）,1500,東京都東村山市恩多町1-9-5,http://www.waterworks.metro.tokyo.jp/kurashi/shinsai/img/160.jpg,平成27年7月9日,［住所］恩多町1-9-5
162,35.7065051,139.476399,東恋ケ窪浄水所,浄水場・給水所,1220,東京都国分寺市東恋ケ窪2-5-8,http://www.waterworks.metro.tokyo.jp/kurashi/shinsai/img/161.jpg,平成27年7月9日,［住所］東恋ケ窪2-5-8
163,35.721054,139.45038,国分寺北町第二浄水所,浄水場・給水所,5800,東京都国分寺市北町4-1-5,http://www.waterworks.metro.tokyo.jp/kurashi/shinsai/img/162.jpg,平成27年7月9日,［住所］北町4-1-5
164,35.688163,139.442608,国立中浄水所,浄水場・給水所,2000,東京都国立市中3-8-1,http://www.waterworks.metro.tokyo.jp/kurashi/shinsai/img/163.jpg,平成27年7月9日,［住所］中3-8-1
165,35.6779939,139.440914,谷保浄水所,浄水場・給水所,2000,東京都国立市谷保1462-1,http://www.waterworks.metro.tokyo.jp/kurashi/shinsai/img/164.jpg,平成27年7月9日,［住所］谷保1462-1
166,35.7337671,139.524477,芝久保浄水所,浄水場・給水所,6030,東京都西東京市芝久保町5-9-1,http://www.waterworks.metro.tokyo.jp/kurashi/shinsai/img/165.jpg,平成27年7月9日,［住所］芝久保町5-9-1
167,35.7354513,139.554782,保谷町浄水所,浄水場・給水所,2910,東京都西東京市保谷町1-5-24,http://www.waterworks.metro.tokyo.jp/kurashi/shinsai/img/166.jpg,平成27年7月9日,［住所］保谷町1-5-24
168,35.7516771,139.552224,西東京栄町浄水所,浄水場・給水所,1000,東京都西東京市栄町2-7-6,http://www.waterworks.metro.tokyo.jp/kurashi/shinsai/img/167.jpg,平成27年7月9日,［住所］栄町2-7-6
169,35.751586,139.329512,福生武蔵野台浄水所,浄水場・給水所,2540,東京都福生市武蔵野台2-32,http://www.waterworks.metro.tokyo.jp/kurashi/shinsai/img/168.jpg,平成27年7月9日,［住所］武蔵野台2-32
170,35.723895,139.330834,市立明神下公園,震災対策用応急給水槽（1500立方メートル槽）,1500,東京都福生市南田園1-12-1,http://www.waterworks.metro.tokyo.jp/kurashi/shinsai/img/169.jpg,平成27年7月9日,［住所］南田園1-12-1
171,35.6429908,139.571116,和泉本町浄水所,浄水場・給水所,2260,東京都狛江市和泉本町4-6-1,http://www.waterworks.metro.tokyo.jp/kurashi/shinsai/img/170.jpg,平成27年7月9日,［住所］和泉本町4-6-1
172,35.7466078,139.413939,上北台浄水所,浄水場・給水所,5330,東京都東大和市上北台1-801-1,http://www.waterworks.metro.tokyo.jp/kurashi/shinsai/img/171.jpg,平成27年7月9日,［住所］上北台1-801-1
173,35.7312269,139.428196,東大和給水所,浄水場・給水所,26660,東京都東大和市桜が丘3-44,http://www.waterworks.metro.tokyo.jp/kurashi/shinsai/img/172.jpg,平成27年7月9日,［住所］桜が丘3-44
174,35.777687,139.517376,清瀬元町浄水所,浄水場・給水所,1260,東京都清瀬市元町2-27-12,http://www.waterworks.metro.tokyo.jp/kurashi/shinsai/img/173.jpg,平成27年7月9日,［住所］元町2-27-12
175,35.7959132,139.540782,清瀬旭が丘浄水所,浄水場・給水所,0,東京都清瀬市旭が丘2-5-5,http://www.waterworks.metro.tokyo.jp/kurashi/shinsai/img/174.jpg,平成27年7月9日,清瀬旭が丘浄水所は、 平成17年6月24日から運用を停止しています。
176,35.7979192,139.5391642,市立第３保育園,小規模応急給水槽（100立方メートル槽）,100,東京都清瀬市旭が丘3-755-1,http://www.waterworks.metro.tokyo.jp/kurashi/shinsai/img/205.jpg,平成27年7月9日,［住所］旭が丘3-755-1
177,35.751937,139.525834,南沢浄水所,浄水場・給水所,3330,東京都東久留米市南沢3-9-21,http://www.waterworks.metro.tokyo.jp/kurashi/shinsai/img/175.jpg,平成27年7月9日,［住所］南沢3-9-21
178,35.7473841,139.507342,滝山浄水所,浄水場・給水所,1960,東京都東久留米市滝山6-1-1,http://www.waterworks.metro.tokyo.jp/kurashi/shinsai/img/176.jpg,平成27年7月9日,［住所］滝山6-1-1
179,35.7499647,139.390535,学園配水所,浄水場・給水所,1460,東京都武蔵村山市学園1-5-7,http://www.waterworks.metro.tokyo.jp/kurashi/shinsai/img/177.jpg,平成27年7月9日,［住所］学園1-5-7
180,35.7588747,139.393662,中藤配水所,浄水場・給水所,950,東京都武蔵村山市中藤2-1-3,http://www.waterworks.metro.tokyo.jp/kurashi/shinsai/img/178.jpg,平成27年7月9日,［住所］中藤2-1-3
181,35.7568554,139.363293,市立中原公園,震災対策用応急給水槽（1500立方メートル槽）,1500,東京都武蔵村山市中原2-21-4,http://www.waterworks.metro.tokyo.jp/kurashi/shinsai/img/179.jpg,平成27年7月9日,［住所］中原2-21-4
182,35.6437424,139.444107,桜ケ丘浄水所,浄水場・給水所,1500,東京都多摩市桜ケ丘4-10,http://www.waterworks.metro.tokyo.jp/kurashi/shinsai/img/180.jpg,平成27年7月9日,［住所］桜ケ丘4-10
183,35.62455,139.413627,落合浄水所,浄水場・給水所,100,東京都多摩市中沢1-12,http://www.waterworks.metro.tokyo.jp/kurashi/shinsai/img/181.jpg,平成27年7月9日,［住所］中沢1-12
184,35.634838,139.439535,愛宕配水所,浄水場・給水所,1140,東京都多摩市愛宕2-51,http://www.waterworks.metro.tokyo.jp/kurashi/shinsai/img/182.jpg,平成27年7月9日,［住所］愛宕2-51
185,35.608639,139.431015,南野給水所,浄水場・給水所,3360,東京都多摩市南野2-16,http://www.waterworks.metro.tokyo.jp/kurashi/shinsai/img/183.jpg,平成27年7月9日,［住所］南野2-16
186,35.6295235,139.463722,聖ヶ丘給水所,浄水場・給水所,14000,東京都多摩市聖ヶ丘4-1,http://www.waterworks.metro.tokyo.jp/kurashi/shinsai/img/184.jpg,平成27年7月9日,［住所］聖ヶ丘4-1
187,35.645741,139.433745,市立並木公園,震災対策用応急給水槽（1500立方メートル槽）,1500,東京都多摩市和田1551-1,http://www.waterworks.metro.tokyo.jp/kurashi/shinsai/img/185.jpg,平成27年7月9日,［住所］和田1551-1
188,35.615837,139.487899,坂浜浄水所,浄水場・給水所,1510,東京都稲城市坂浜816,http://www.waterworks.metro.tokyo.jp/kurashi/shinsai/img/186.jpg,平成27年7月9日,［住所］坂浜816
189,35.6437222,139.493028,向陽台給水所,浄水場・給水所,2000,東京都稲城市向陽台6-16,http://www.waterworks.metro.tokyo.jp/kurashi/shinsai/img/187.jpg,平成27年7月9日,［住所］向陽台6-16
190,35.6264602,139.472664,若葉台給水所,浄水場・給水所,1300,東京都稲城市若葉台1-19,http://www.waterworks.metro.tokyo.jp/kurashi/shinsai/img/188.jpg,平成27年7月9日,［住所］若葉台1-19
191,35.7321865,139.284454,秋留台給水所,浄水場・給水所,2000,東京都あきる野市秋川3-2-10,http://www.waterworks.metro.tokyo.jp/kurashi/shinsai/img/189.jpg,平成27年7月9日,［住所］秋川3-2-10
192,35.745663,139.287219,菅生給水所,浄水場・給水所,2000,東京都あきる野市菅生683,http://www.waterworks.metro.tokyo.jp/kurashi/shinsai/img/190.jpg,平成27年7月9日,［住所］菅生683
193,35.71888,139.279151,上代継浄水所,浄水場・給水所,200,東京都あきる野市上代継407,http://www.waterworks.metro.tokyo.jp/kurashi/shinsai/img/191.jpg,平成27年7月9日,［住所］上代継407
194,35.726467,139.20192,戸倉給水所,浄水場・給水所,1660,東京都あきる野市戸倉348-1,http://www.waterworks.metro.tokyo.jp/kurashi/shinsai/img/192.jpg,平成27年7月9日,［住所］戸倉348-1
195,35.719041,139.233864,小峰台配水所,浄水場・給水所,160,東京都あきる野市小峰台40,http://www.waterworks.metro.tokyo.jp/kurashi/shinsai/img/193.jpg,平成27年7月9日,［住所］小峰台40
196,35.7348684,139.252211,伊奈配水所,浄水場・給水所,130,東京都あきる野市伊奈372-3,http://www.waterworks.metro.tokyo.jp/kurashi/shinsai/img/194.jpg,平成27年7月9日,［住所］伊奈372-3
197,35.776763,139.363858,石畑給水所,浄水場・給水所,10000,東京都瑞穂町石畑2301,http://www.waterworks.metro.tokyo.jp/kurashi/shinsai/img/195.jpg,平成27年7月9日,［住所］石畑2301
198,35.74752,139.25519,文化の森給水所,浄水場・給水所,2000,東京都日の出町平井3075,http://www.waterworks.metro.tokyo.jp/kurashi/shinsai/img/196.jpg,平成27年7月9日,［住所］平井2621
199,35.7152429,139.566641,第一浄水場,浄水場・給水所,3780,東京都武蔵野市吉祥寺北町4-11-46,http://www.waterworks.metro.tokyo.jp/kurashi/shinsai/img/197.jpg,平成27年7月9日,［住所］吉祥寺北町4-11-46
200,35.709673,139.53636,第二浄水場,浄水場・給水所,2610,東京都武蔵野市桜堤1-6-6,http://www.waterworks.metro.tokyo.jp/kurashi/shinsai/img/198.jpg,平成27年7月9日,［住所］桜堤1-6-6
201,35.712165,139.347832,西部配水場,浄水場・給水所,2780,東京都昭島市緑町2-17-16,http://www.waterworks.metro.tokyo.jp/kurashi/shinsai/img/199.jpg,平成27年7月9日,［住所］緑町2-17-16
202,35.708692,139.369836,東部配水場,浄水場・給水所,2160,東京都昭島市朝日町4-23,http://www.waterworks.metro.tokyo.jp/kurashi/shinsai/img/200.jpg,平成27年7月9日,［住所］朝日町4-23
203,35.7647394,139.319607,第一配水場,浄水場・給水所,2060,東京都羽村市緑ケ丘2-18-5,http://www.waterworks.metro.tokyo.jp/kurashi/shinsai/img/201.jpg,平成27年7月9日,［住所］緑ケ丘2-18-5
204,35.7761234,139.295803,小作浄水場,浄水場・給水所,14260,東京都羽村市小作台4-2-1,http://www.waterworks.metro.tokyo.jp/kurashi/shinsai/img/202.jpg,平成27年7月9日,［住所］小作台4-2-1
205,35.733876,139.815874,白髭東地区防災拠点,,2700,東京都墨田区堤通2,http://www.waterworks.metro.tokyo.jp/kurashi/shinsai/img/203.jpg,平成27年7月9日,［住所］堤通2
